BEESAT-1                
1 35933U 09051C   26140.45415592  .00000522  00000+0  11466-3 0  9995
2 35933  98.3982  47.5514 0004510 327.5835  32.5088 14.61668848885136
ITUPSAT1                
1 35935U 09051E   26141.17447264  .00000492  00000+0  11173-3 0  9999
2 35935  98.4067  47.5032 0006862 332.8166  27.2673 14.60394013884797
XIWANG-1 (HOPE-1)       
1 36122U 09072B   26141.87218927 -.00000322  00000+0 -72795-3 0  9991
2 36122 100.4019  96.1274 0006975 297.0986  62.9415 13.16436804789544
O/OREOS (USA 219)       
1 37224U 10062C   26141.67504265  .00001211  00000+0  12052-3 0  9993
2 37224  71.9678 140.3873 0012643 121.2404 239.0007 14.93614128112682
JUGNU                   
1 37839U 11058B   26141.12830639  .00000365  00000+0  51021-4 0  9997
2 37839  19.9597 112.8131 0018736 137.3225 309.8735 14.13767814755191
SRMSAT                  
1 37841U 11058D   26141.58428440  .00000353  00000+0  47856-4 0  9991
2 37841  19.9710 220.4956 0011598 271.8763 219.5780 14.11569257754052
STRAND-1                
1 39090U 13009E   26141.46034243  .00000158  00000+0  67402-4 0  9990
2 39090  98.3916 322.3538 0007711 317.1880  42.8706 14.37145301693227
ZACUBE-1 (TSHEPISOSAT)  
1 39417U 13066B   26141.87673122  .00003291  00000+0  25856-3 0  9993
2 39417  97.8118 104.0711 0040705 341.0100  18.9603 15.00961986676785
GOMX-1                  
1 39430U 13066Q   26141.83256690  .00001545  00000+0  23766-3 0  9999
2 39430  97.6495 343.9577 0129155 161.5031 199.0936 14.69341216666045
CUBEBUG-2 (LO-74)       
1 39440U 13066AA  26141.80253712  .00002832  00000+0  26539-3 0  9990
2 39440  97.8896  90.6771 0059474 114.1782 246.5670 14.93527149673058
FUNCUBE-1 (AO-73)       
1 39444U 13066AE  26141.86919839  .00005987  00000+0  37656-3 0  9995
2 39444  97.8267 112.7754 0034817 294.6838  65.0766 15.09108611675690
UWE-3                   
1 39446U 13066AG  26141.81168851  .00003367  00000+0  29228-3 0  9998
2 39446  97.8681  97.7159 0050377  49.0373 311.5191 14.96767097673635
UNISAT-6                
1 40012U 14033C   26141.84307558  .00002568  00000+0  27994-3 0  9996
2 40012  97.7854 295.0269 0045929 153.8387 206.5164 14.88070007642243
DUCHIFAT-1              
1 40021U 14033M   26141.69047406  .00060600  00000+0  76548-3 0  9992
2 40021  98.0490 197.2432 0006205 164.7200 195.4243 15.59344109651618
QB50P1                  
1 40025U 14033R   26141.45410362  .00005817  00000+0  29138-3 0  9997
2 40025  98.0976 150.7353 0007537 327.3362  32.7403 15.17791786648979
LILACSAT-2              
1 40908U 15049K   26141.81995208  .00013073  00000+0  23086-3 0  9991
2 40908  97.4676 177.6742 0006586   7.0571 353.0772 15.50476276591668
FOX-1A (AO-85)          
1 40967U 15058D   26141.85669779  .00002341  00000+0  21774-3 0  9999
2 40967  64.7763   0.8013 0129310  66.9308 294.5375 14.90797376109649
CAS-2T & KS-1Q          
1 41847U 16066G   26141.78179894  .00000702  00000+0  10806-3 0  9996
2 41847  98.3826 217.8178 0341518 209.5069 148.6462 14.44603131500989
RADFXSAT (FOX-1B)       
1 43017U 17073E   26141.54623661  .00006694  00000+0  29382-3 0  9991
2 43017  97.4738   9.3125 0153649  60.9980 300.6551 15.12173908461362
DIWATA-2B               
1 43678U 18084H   26141.82700002  .00002360  00000+0  19327-3 0  9997
2 43678  98.1118 336.9011 0011627 261.1148  98.8758 15.00309933412264
ES'HAIL 2               
1 43700U 18090A   26141.73891693  .00000136  00000+0  00000+0 0  9990
2 43700   0.0119 347.9404 0001349 100.4780  82.7575  1.00271059 27418
FOX-1CLIFF (AO-95)      
1 43770U 18099N   26141.59313666  .00007731  00000+0  30248-3 0  9998
2 43770  97.4396 201.9481 0010395  85.8622 274.3805 15.26058773409168
ITASAT                  
1 43786U 18099AE  26141.73538553  .00004558  00000+0  22259-3 0  9992
2 43786  97.4045 193.7797 0014358  86.9902 273.2975 15.18667175408898
JY1SAT (JO-97)          
1 43803U 18099AX  26141.72848380  .00011251  00000+0  35840-3 0  9991
2 43803  97.4140 204.4876 0005467  22.6895 337.4587 15.32706710409574
UWE-4                   
1 43880U 18111E   26141.72946507  .00021785  00000+0  47342-3 0  9994
2 43880  97.5858  68.9379 0010233  68.3750 291.8587 15.44310525406692
TIANYAN 01              
1 44881U 19093C   26141.85969586 -.00000232  00000+0 -20224-4 0  9999
2 44881  97.7532 214.7332 0013733 167.3742 192.7820 14.86466872347509
RS-44 & BREEZE-KM R/B   
1 44909U 19096E   26141.57978244  .00000020  00000+0  37434-4 0  9997
2 44909  82.5229 357.3892 0216970 206.3471 152.6467 12.79748401298947
SALSAT                  
1 46495U 20068K   26141.45465465  .00005535  00000+0  19705-3 0  9999
2 46495  97.8859 142.9019 0010937  45.0571 315.1553 15.29356447311277
XW-3 (CAS-9)            
1 50466U 21131B   26141.88332479  .00000115  00000+0  49326-4 0  9991
2 50466  98.4966 234.4170 0004419 160.9363 199.1992 14.41328020231328
GREENCUBE (IO-117)      
1 53109U 22080E   26141.41483569 -.00000003  00000+0  00000+0 0  9996
2 53109  70.1430 307.5592 0008838 295.9766  63.9983  6.42583336 90341
UMKA 1 (RS40S)          
1 57172U 23091G   26141.83835531  .00004599  00000+0  21342-3 0  9998
2 57172  97.5061 200.6414 0012270 204.4014 155.6641 15.20472652160005
CUBESX-HSE 3 (RS42S)    
1 57178U 23091N   26141.83159098  .00009453  00000+0  32294-3 0  9993
2 57178  97.5099 207.0990 0011267 177.6125 182.5171 15.30458353160393
MONITOR-3 (RS58S)       
1 57180U 23091Q   26141.86471705  .00007853  00000+0  29642-3 0  9996
2 57180  97.5092 205.1276 0011883 184.7222 175.3906 15.27237757160278
MONITOR-4 (RS57S)       
1 57182U 23091S   26141.84539691  .00007912  00000+0  29777-3 0  9990
2 57182  97.5085 205.0777 0011889 185.1249 174.9870 15.27335919160271
MONITOR-2 (RS39S)       
1 57184U 23091U   26141.82710094  .00003616  00000+0  17776-3 0  9991
2 57184  97.5083 200.2835 0010873 196.2007 163.8880 15.18629949159950
SVYATOBOR 1 (RS60S)     
1 57187U 23091X   26141.83648830  .00006543  00000+0  25624-3 0  9996
2 57187  97.5097 205.5160 0009820 175.7899 184.3423 15.26102294160296
VIZARD-METEO (RS38S)    
1 57189U 23091Z   26141.82106138  .00012237  00000+0  36136-3 0  9994
2 57189  97.5098 210.7952 0008418 156.3405 203.8227 15.35078461160642
POLYTECH-UNIVERSE 3 (R*)
1 57191U 23091AB  26141.85775185  .00003423  00000+0  16733-3 0  9992
2 57191  97.5062 199.8189 0014673 215.7460 144.2793 15.18827490159959
UTMN 2 (RS27S)          
1 57203U 23091AP  26141.86378350  .00009903  00000+0  32955-3 0  9993
2 57203  97.5094 208.7329 0008911 162.8359 197.3185 15.31319393160512
KUZGTU 1 (RS47S)        
1 57217U 23091AV  26141.86537699  .00008970  00000+0  31889-3 0  9999
2 57217  97.5071 206.0890 0011319 181.1851 178.9364 15.29174165160352
SONATE-2                
1 59112U 24043Q   26141.86405082  .00026703  00000+0  37559-3 0  9997
2 59112  97.5516 290.6923 0005753 293.3199  66.7449 15.56638828123790
MESAT1                  
1 60209U 24125G   26141.32247027  .00039354  00000+0  48287-3 0  9997
2 60209  97.2327 358.2476 0008361 320.9741  39.0912 15.60184529105379
OOV-CUBE (TUBSAT-30)    
1 60240U 24128F   26141.83789602  .00001789  00000+0  14626-3 0  9992
2 60240  61.9943 317.4425 0047970 128.0316 232.5120 15.02620817102156
COLIBRI-S (RS67S)       
1 61746U 24199M   26141.86712874  .00016796  00000+0  33944-3 0  9990
2 61746  97.3027  15.4999 0009153  29.0185 331.1572 15.46505884133346
HORS 3 (RS81S)          
1 61753U 24199U   26141.81726162  .00027390  00000+0  43964-3 0  9993
2 61753  97.3009  17.1665 0007381  38.1220 322.0554 15.52992282133466
HORS 4 (RS82S)          
1 61754U 24199V   26141.85195652  .00033997  00000+0  46983-3 0  9996
2 61754  97.2960  18.2457 0006249  35.6341 324.5330 15.57061334133549
ARCTICSAT 1 (RS74S)     
1 61762U 24199AD  26141.85796419  .00249787  00000+0  87659-3 0  9994
2 61762  97.2891  23.9810 0001737 129.7946 230.3479 15.88596418133919
SIT-2086                
1 61764U 24199AF  26141.82794514  .00026570  00000+0  45623-3 0  9995
2 61764  97.2977  17.7430 0007060  18.4703 341.6805 15.51110036130346
HYPERVIEW 1G (RS66S)    
1 61772U 24199AP  26141.84364228  .00082311  00000+0  70146-3 0  9994
2 61772  97.2925  20.3602 0005651  37.2681 322.8973 15.69279437130535
ALTAIR (RS65S)          
1 61779U 24199AW  26141.80573241  .00008282  00000+0  23416-3 0  9997
2 61779  97.3059  11.3364 0014126  47.4620 312.7815 15.36482983133069
ASRTU-1 (AO-123)        
1 61781U 24199AY  26141.83672274  .00005885  00000+0  17373-3 0  9990
2 61781  97.3031  10.7481 0015304  49.0240 311.2325 15.35242025129885
SAMSAT-IONOSPHERE (RS7*)
1 61784U 24199BB  26141.82766816  .00032942  00000+0  48813-3 0  9995
2 61784  97.2983  17.1377 0009330  33.5359 326.6484 15.55144059133464
RTU MIREA 1 (RS51S)     
1 61785U 24199BC  26141.84157451  .00039899  00000+0  53046-3 0  9999
2 61785  97.2973  17.8595 0009006  31.6672 328.5124 15.58045209130368
TEVEL2-4                
1 63213U 25052D   26141.70008453  .00012425  00000+0  38506-3 0  9998
2 63213  97.3928  38.0639 0002747 152.6877 207.4511 15.33570225 66050
TEVEL2-5                
1 63214U 25052E   26141.65247975  .00012280  00000+0  38252-3 0  9994
2 63214  97.3927  37.9715 0002665 152.7100 207.4282 15.33409785 66048
TEVEL2-6                
1 63215U 25052F   26141.59890998  .00012324  00000+0  38436-3 0  9990
2 63215  97.3928  37.9026 0002776 153.8216 206.3167 15.33369876 66033
TEVEL2-1                
1 63217U 25052H   26141.42319646  .00011240  00000+0  35637-3 0  9996
2 63217  97.3904  37.3820 0002251 164.9944 195.1365 15.32869635 65990
TEVEL2-3                
1 63218U 25052J   26141.22291692  .00011634  00000+0  36824-3 0  9991
2 63218  97.3903  37.2007 0002198 167.5509 192.5788 15.32914108 65965
TEVEL2-2                
1 63219U 25052K   26141.42364117  .00011935  00000+0  37813-3 0  9990
2 63219  97.3905  37.3842 0002173 166.3510 193.7791 15.32876877 65998
